{
  "type": "FeatureCollection",
  "features": [
    {
      "type": "Feature",
      "properties": {
        "norad_id": 37836,
        "name": "EUTELSAT 16A",
        "group": "eutelsat",
        "lat": 0.024475095279734144,
        "lon": 22.990209016393287,
        "alt_km": 35796.921745830085,
        "timestamp": "2025-12-14T18:52:55.169466+00:00",
        "meta_object_name": "EUTELSAT 16A",
        "meta_object_id": "2011-057A",
        "meta_epoch": "2025-12-13T22:05:10.934880",
        "meta_mean_motion": 1.00272794,
        "meta_eccentricity": 0.00060657,
        "meta_inclination": 0.0605,
        "meta_ra_of_asc_node": 13.0254,
        "meta_arg_of_pericenter": 254.1062,
        "meta_mean_anomaly": 163.0136,
        "meta_ephemeris_type": 0,
        "meta_classification_type": "U",
        "meta_norad_cat_id": 37836,
        "meta_element_set_no": 999,
        "meta_rev_at_epoch": 547,
        "meta_bstar": 0,
        "meta_mean_motion_dot": 1.21e-06,
        "meta_mean_motion_ddot": 0,
        "tle_line1": "1 37836U 11057A   25347.92026545  .00000121  00000+0  00000+0 0  9997",
        "tle_line2": "2 37836   0.0605  13.0254 0006065 254.1062 163.0136  1.00272794  5470"
      },
      "geometry": {
        "type": "Point",
        "coordinates": [
          22.990209016393287,
          0.024475095279734144
        ]
      }
    },
    {
      "type": "Feature",
      "properties": {
        "norad_id": 38992,
        "name": "EUTELSAT 21B",
        "group": "eutelsat",
        "lat": 0.0385644511262128,
        "lon": 28.561129846639524,
        "alt_km": 35791.86248480774,
        "timestamp": "2025-12-14T18:52:55.169479+00:00",
        "meta_object_name": "EUTELSAT 21B",
        "meta_object_id": "2012-062B",
        "meta_epoch": "2025-12-13T22:06:48.280032",
        "meta_mean_motion": 1.00273015,
        "meta_eccentricity": 0.0003394,
        "meta_inclination": 0.0675,
        "meta_ra_of_asc_node": 8.7587,
        "meta_arg_of_pericenter": 264.1836,
        "meta_mean_anomaly": 163.2074,
        "meta_ephemeris_type": 0,
        "meta_classification_type": "U",
        "meta_norad_cat_id": 38992,
        "meta_element_set_no": 999,
        "meta_rev_at_epoch": 4797,
        "meta_bstar": 0,
        "meta_mean_motion_dot": 1.47e-06,
        "meta_mean_motion_ddot": 0,
        "tle_line1": "1 38992U 12062B   25347.92139213  .00000147  00000+0  00000+0 0  9993",
        "tle_line2": "2 38992   0.0675   8.7587 0003394 264.1836 163.2074  1.00273015 47974"
      },
      "geometry": {
        "type": "Point",
        "coordinates": [
          28.561129846639524,
          0.0385644511262128
        ]
      }
    },
    {
      "type": "Feature",
      "properties": {
        "norad_id": 39020,
        "name": "EUTELSAT 70B",
        "group": "eutelsat",
        "lat": 0.082266319575576,
        "lon": 77.41713279890614,
        "alt_km": 35804.30816920124,
        "timestamp": "2025-12-14T18:52:55.169490+00:00",
        "meta_object_name": "EUTELSAT 70B",
        "meta_object_id": "2012-069A",
        "meta_epoch": "2025-12-13T22:20:39.453216",
        "meta_mean_motion": 1.00270878,
        "meta_eccentricity": 0.00043107,
        "meta_inclination": 0.0617,
        "meta_ra_of_asc_node": 348.4372,
        "meta_arg_of_pericenter": 259.4037,
        "meta_mean_anomaly": 240.6881,
        "meta_ephemeris_type": 0,
        "meta_classification_type": "U",
        "meta_norad_cat_id": 39020,
        "meta_element_set_no": 999,
        "meta_rev_at_epoch": 4765,
        "meta_bstar": 0,
        "meta_mean_motion_dot": -2.7e-07,
        "meta_mean_motion_ddot": 0,
        "tle_line1": "1 39020U 12069A   25347.93101219 -.00000027  00000+0  00000+0 0  9997",
        "tle_line2": "2 39020   0.0617 348.4372 0004310 259.4037 240.6881  1.00270878 47653"
      },
      "geometry": {
        "type": "Point",
        "coordinates": [
          77.41713279890614,
          0.082266319575576
        ]
      }
    },
    {
      "type": "Feature",
      "properties": {
        "norad_id": 39122,
        "name": "EUTELSAT 117 WEST A",
        "group": "eutelsat",
        "lat": -0.030011664570244456,
        "lon": -109.89507423220584,
        "alt_km": 35774.35594629742,
        "timestamp": "2025-12-14T18:52:55.169503+00:00",
        "meta_object_name": "EUTELSAT 117 WEST A",
        "meta_object_id": "2013-012A",
        "meta_epoch": "2025-12-13T21:27:14.569632",
        "meta_mean_motion": 1.00271992,
        "meta_eccentricity": 0.00028647,
        "meta_inclination": 0.0176,
        "meta_ra_of_asc_node": 22.9168,
        "meta_arg_of_pericenter": 243.6015,
        "meta_mean_anomaly": 21.3056,
        "meta_ephemeris_type": 0,
        "meta_classification_type": "U",
        "meta_norad_cat_id": 39122,
        "meta_element_set_no": 999,
        "meta_rev_at_epoch": 4657,
        "meta_bstar": 0,
        "meta_mean_motion_dot": 3e-08,
        "meta_mean_motion_ddot": 0,
        "tle_line1": "1 39122U 13012A   25347.89391863  .00000003  00000+0  00000+0 0  9993",
        "tle_line2": "2 39122   0.0176  22.9168 0002864 243.6015  21.3056  1.00271992 46572"
      },
      "geometry": {
        "type": "Point",
        "coordinates": [
          -109.89507423220584,
          -0.030011664570244456
        ]
      }
    },
    {
      "type": "Feature",
      "properties": {
        "norad_id": 39163,
        "name": "EUTELSAT 7B",
        "group": "eutelsat",
        "lat": -0.0006825710014507545,
        "lon": 13.972201291533239,
        "alt_km": 35774.35833149509,
        "timestamp": "2025-12-14T18:52:55.169515+00:00",
        "meta_object_name": "EUTELSAT 7B",
        "meta_object_id": "2013-022A",
        "meta_epoch": "2025-12-13T22:23:38.652000",
        "meta_mean_motion": 1.00273532,
        "meta_eccentricity": 0.00046563,
        "meta_inclination": 0.0752,
        "meta_ra_of_asc_node": 23.5398,
        "meta_arg_of_pericenter": 295.3859,
        "meta_mean_anomaly": 106.8466,
        "meta_ephemeris_type": 0,
        "meta_classification_type": "U",
        "meta_norad_cat_id": 39163,
        "meta_element_set_no": 999,
        "meta_rev_at_epoch": 4610,
        "meta_bstar": 0,
        "meta_mean_motion_dot": 6.5e-07,
        "meta_mean_motion_ddot": 0,
        "tle_line1": "1 39163U 13022A   25347.93308625  .00000065  00000+0  00000+0 0  9996",
        "tle_line2": "2 39163   0.0752  23.5398 0004656 295.3859 106.8466  1.00273532 46105"
      },
      "geometry": {
        "type": "Point",
        "coordinates": [
          13.972201291533239,
          -0.0006825710014507545
        ]
      }
    },
    {
      "type": "Feature",
      "properties": {
        "norad_id": 39612,
        "name": "EXPRESS-AT1",
        "group": "eutelsat",
        "lat": 0.0403423784291373,
        "lon": 62.91131796441846,
        "alt_km": 35784.93465770252,
        "timestamp": "2025-12-14T18:52:55.169527+00:00",
        "meta_object_name": "EXPRESS-AT1",
        "meta_object_id": "2014-010A",
        "meta_epoch": "2025-12-14T10:15:41.842368",
        "meta_mean_motion": 1.00273481,
        "meta_eccentricity": 3.13e-05,
        "meta_inclination": 0.0196,
        "meta_ra_of_asc_node": 344.8805,
        "meta_arg_of_pericenter": 139.4475,
        "meta_mean_anomaly": 168.9347,
        "meta_ephemeris_type": 0,
        "meta_classification_type": "U",
        "meta_norad_cat_id": 39612,
        "meta_element_set_no": 999,
        "meta_rev_at_epoch": 4296,
        "meta_bstar": 0,
        "meta_mean_motion_dot": 0,
        "meta_mean_motion_ddot": 0,
        "tle_line1": "1 39612U 14010A   25348.42756762  .00000000  00000+0  00000+0 0  9996",
        "tle_line2": "2 39612   0.0196 344.8805 0000313 139.4475 168.9347  1.00273481 42966"
      },
      "geometry": {
        "type": "Point",
        "coordinates": [
          62.91131796441846,
          0.0403423784291373
        ]
      }
    },
    {
      "type": "Feature",
      "properties": {
        "norad_id": 39613,
        "name": "EXPRESS-AT2",
        "group": "eutelsat",
        "lat": -0.0019065483889609772,
        "lon": 146.75872398734575,
        "alt_km": 35791.76508348144,
        "timestamp": "2025-12-14T18:52:55.169540+00:00",
        "meta_object_name": "EXPRESS-AT2",
        "meta_object_id": "2014-010B",
        "meta_epoch": "2025-12-13T22:40:30.052992",
        "meta_mean_motion": 1.00270289,
        "meta_eccentricity": 0.00014321,
        "meta_inclination": 0.0188,
        "meta_ra_of_asc_node": 318.6769,
        "meta_arg_of_pericenter": 337.1317,
        "meta_mean_anomaly": 267.039,
        "meta_ephemeris_type": 0,
        "meta_classification_type": "U",
        "meta_norad_cat_id": 39613,
        "meta_element_set_no": 999,
        "meta_rev_at_epoch": 4264,
        "meta_bstar": 0,
        "meta_mean_motion_dot": -2.65e-06,
        "meta_mean_motion_ddot": 0,
        "tle_line1": "1 39613U 14010B   25347.94479228 -.00000265  00000+0  00000+0 0  9996",
        "tle_line2": "2 39613   0.0188 318.6769 0001432 337.1317 267.0390  1.00270289 42648"
      },
      "geometry": {
        "type": "Point",
        "coordinates": [
          146.75872398734575,
          -0.0019065483889609772
        ]
      }
    }
  ]
}